[{"OBJECT_NAME":"STARLINK-30807","OBJECT_ID":"2023-167T","EPOCH":"2026-03-09T05:24:03.045600","MEAN_MOTION":15.27589562,"ECCENTRICITY":0.00011118,"INCLINATION":42.9957,"RA_OF_ASC_NODE":146.0518,"ARG_OF_PERICENTER":266.8176,"MEAN_ANOMALY":93.2548,"EPHEMERIS_TYPE":0,"CLASSIFICATION_TYPE":"U","NORAD_CAT_ID":58192,"ELEMENT_SET_NO":999,"REV_AT_EPOCH":13091,"BSTAR":0.0012233459,"MEAN_MOTION_DOT":0.00033565,"MEAN_MOTION_DDOT":0},{"OBJECT_NAME":"ION SCV-017","OBJECT_ID":"2025-052W","EPOCH":"2026-03-09T17:11:44.577024","MEAN_MOTION":15.26881798,"ECCENTRICITY":0.0023746,"INCLINATION":97.4016,"RA_OF_ASC_NODE":324.7516,"ARG_OF_PERICENTER":44.9875,"MEAN_ANOMALY":315.3282,"EPHEMERIS_TYPE":0,"CLASSIFICATION_TYPE":"U","NORAD_CAT_ID":63230,"ELEMENT_SET_NO":999,"REV_AT_EPOCH":5485,"BSTAR":0.00024539061,"MEAN_MOTION_DOT":6.457e-5,"MEAN_MOTION_DDOT":0}]
